{"type":"FeatureCollection","features":[
{"type":"Feature","properties":{"layer":"parcel","source":"golden commercial pad parcel"},"geometry":{"type":"Polygon","coordinates":[[[0,0],[220,0],[220,160],[0,160],[0,0]]]}},
{"type":"Feature","properties":{"layer":"easement","source":"golden commercial pad utility easement"},"geometry":{"type":"Polygon","coordinates":[[[180,0],[220,0],[220,160],[180,160],[180,0]]]}},
{"type":"Feature","properties":{"layer":"row","source":"golden commercial pad ROW"},"geometry":{"type":"Polygon","coordinates":[[[0,-35],[220,-35],[220,0],[0,0],[0,-35]]]}},
{"type":"Feature","properties":{"layer":"floodplain","source":"golden commercial pad floodplain screen"},"geometry":{"type":"Polygon","coordinates":[[[190,120],[220,120],[220,160],[190,160],[190,120]]]}},
{"type":"Feature","properties":{"layer":"wetland","source":"golden commercial pad wetland screen"},"geometry":{"type":"Polygon","coordinates":[[[0,130],[35,130],[35,160],[0,160],[0,130]]]}},
{"type":"Feature","properties":{"layer":"existing water utility","source":"golden commercial pad utility record"},"geometry":{"type":"LineString","coordinates":[[0,-15],[220,-15]]}}
]}
